IRIDIUM 33              
1 24946U 97051C   26063.42674667  .00000454  00000+0  15235-3 0  9997
2 24946  86.3873  33.9069 0006380 321.3752  38.6987 14.35097837490069
IRIDIUM 33 DEB          
1 33773U 97051L   26063.38220831  .00001710  00000+0  50011-3 0  9997
2 33773  86.4028  25.9705 0008983 239.1625 120.8693 14.43465800895250
IRIDIUM 33 DEB          
1 33775U 97051N   26063.62841729  .00002121  00000+0  64393-3 0  9996
2 33775  86.3668  14.5790 0010777 252.5553 230.0888 14.41738373893201
IRIDIUM 33 DEB          
1 33776U 97051P   26063.49144682  .00001290  00000+0  41682-3 0  9998
2 33776  86.4016  46.4112 0012438 294.1617 184.2892 14.38395257892571
IRIDIUM 33 DEB          
1 33777U 97051Q   26063.82522766  .00004322  00000+0  97155-3 0  9994
2 33777  86.3834 359.4770 0006911   3.3645 356.7608 14.56292216897281
IRIDIUM 33 DEB          
1 33850U 97051T   26063.78203245  .00001903  00000+0  56872-3 0  9992
2 33850  86.3467 354.9025 0008894 261.8757 127.1380 14.42468693893355
IRIDIUM 33 DEB          
1 33853U 97051W   26063.80497044  .00003321  00000+0  18714-2 0  9998
2 33853  86.0000 313.8295 0210576 345.1447 101.3308 13.99559470864936
IRIDIUM 33 DEB          
1 33860U 97051AD  26063.78323996  .00012409  00000+0  21119-2 0  9997
2 33860  86.3875 350.8854 0011648  60.7746 321.0755 14.68955726899262
IRIDIUM 33 DEB          
1 33862U 97051AF  26063.77757709  .00016810  00000+0  26375-2 0  9990
2 33862  86.4132   1.2939 0050242 139.7721 242.0294 14.71691641900298
IRIDIUM 33 DEB          
1 33866U 97051AK  26063.43626199  .00004671  00000+0  18399-2 0  9994
2 33866  86.2982  58.4415 0110802 259.7495 264.5453 14.25703804879741
IRIDIUM 33 DEB          
1 33870U 97051AP  26063.62915802  .00004235  00000+0  11727-2 0  9996
2 33870  86.3774  23.1320 0018205 272.7967 213.6728 14.46365302893200
IRIDIUM 33 DEB          
1 33881U 97051BA  26063.49355997  .00027320  00000+0  57074-2 0  9991
2 33881  86.3813  71.1326 0052784 260.2487 252.8127 14.58845613886913
IRIDIUM 33 DEB          
1 33884U 97051BD  26063.67249836  .00022625  00000+0  29702-2 0  9998
2 33884  86.3723 332.7774 0013941  33.1726   5.5874 14.80098484900587
IRIDIUM 33 DEB          
1 33886U 97051BF  26063.48099823  .00000916  00000+0  30746-3 0  9998
2 33886  86.3836  32.7976 0013577 348.5303 131.6770 14.36161174892252
IRIDIUM 33 DEB          
1 33887U 97051BG  26063.49716613  .00000634  00000+0  20591-3 0  9997
2 33887  86.3083 328.1822 0005743 354.1357 128.2730 14.37319189893393
IRIDIUM 33 DEB          
1 33953U 97051BN  26063.84109890  .00007661  00000+0  17215-2 0  9998
2 33953  86.3883  18.1098 0015479 172.8521 216.8565 14.56333142894983
IRIDIUM 33 DEB          
1 33960U 97051BV  26063.53789424  .00036582  00000+0  37767-2 0  9997
2 33960  86.2483 250.7877 0002244 120.3771 293.4165 14.90000403900834
IRIDIUM 33 DEB          
1 33966U 97051CB  26063.81078901  .00003407  00000+0  87470-3 0  9992
2 33966  86.3968  10.7903 0005474 303.0679  78.1346 14.50017794896311
IRIDIUM 33 DEB          
1 34071U 97051CE  26063.52249501  .00003364  00000+0  86431-3 0  9992
2 34071  86.3503 342.2824 0006636 178.9694 181.1525 14.49972278895190
IRIDIUM 33 DEB          
1 34077U 97051CL  26063.30793190  .00013879  00000+0  24964-2 0  9996
2 34077  86.3887  15.5217 0012081 100.1226  52.8841 14.66498220895279
IRIDIUM 33 DEB          
1 34079U 97051CN  26063.51270897  .00027457  00000+0  30629-2 0  9997
2 34079  86.3792 331.3872 0009730  59.3938  62.6803 14.86869979901915
IRIDIUM 33 DEB          
1 34088U 97051CX  26063.33742377  .00065375  00000+0  55534-2 0  9997
2 34088  86.3869 353.0648 0001808  60.5170  60.7136 14.97571719899606
IRIDIUM 33 DEB          
1 34091U 97051DA  26063.28807729  .00080776  00000+0  83703-2 0  9999
2 34091  86.3434  29.2725 0033244  17.5483 342.6883 14.89210988890773
IRIDIUM 33 DEB          
1 34097U 97051DG  26063.65359457  .00004677  00000+0  15558-2 0  9995
2 34097  86.2019 325.2449 0083793  92.5688 268.5104 14.35505793882947
IRIDIUM 33 DEB          
1 34145U 97051DY  26063.38206519  .00003933  00000+0  11489-2 0  9992
2 34145  86.2092 296.1518 0051819 182.8117 177.2800 14.43058007888157
IRIDIUM 33 DEB          
1 34146U 97051DZ  26063.70141169  .00003422  00000+0  88060-3 0  9991
2 34146  86.2838 313.5936 0025974 317.1390  66.6136 14.49707659892948
IRIDIUM 33 DEB          
1 34159U 97051EN  26063.80919760  .00002049  00000+0  65818-3 0  9996
2 34159  86.3546  13.2370 0029194  22.0571 338.1876 14.38737000891393
IRIDIUM 33 DEB          
1 34350U 97051ES  26063.16629911  .00001631  00000+0  45464-3 0  9995
2 34350  86.3309 327.4883 0019130 225.8608 301.5122 14.45677187894696
IRIDIUM 33 DEB          
1 34366U 97051FJ  26063.35861571  .00008236  00000+0  19058-2 0  9990
2 34366  86.3724  13.7811 0017841 222.8739 295.8482 14.54947547893681
IRIDIUM 33 DEB          
1 34375U 97051FT  26063.26048079  .00001366  00000+0  62457-3 0  9999
2 34375  86.4352 149.8658 0100817 227.0158 187.9074 14.18167672878670
IRIDIUM 33 DEB          
1 34376U 97051FU  26063.45652675  .00014172  00000+0  26623-2 0  9997
2 34376  86.3001 329.7610 0022396 254.2155 105.6588 14.64437708892025
IRIDIUM 33 DEB          
1 34486U 97051GB  26063.26206576  .00053100  00000+0  40506-2 0  9993
2 34486  86.3952 334.2350 0008687 154.2055 335.9794 15.01746722902074
IRIDIUM 33 DEB          
1 34487U 97051GC  26063.26090768  .00000963  00000+0  27821-3 0  9993
2 34487  86.3484 337.2952 0029308 218.1877 272.5388 14.43372275894248
IRIDIUM 33 DEB          
1 34488U 97051GD  26053.04643645  .01238203  00000+0  64727-2 0  9993
2 34488  86.3081 269.5420 0004770  70.8002 289.3788 15.78089963903416
IRIDIUM 33 DEB          
1 34492U 97051GH  26063.61481960  .00016229  00000+0  54593-2 0  9993
2 34492  86.4704 301.4920 0186682 335.9827  51.1154 14.27635689862262
IRIDIUM 33 DEB          
1 34497U 97051GN  26063.32543161  .00002829  00000+0  10981-2 0  9992
2 34497  86.2805  17.5296 0082343  75.4545  77.3596 14.27759501880473
IRIDIUM 33 DEB          
1 34508U 97051GZ  26063.46718744  .00005346  00000+0  16857-2 0  9996
2 34508  86.3655  67.9524 0061747 265.3100  94.1045 14.39088207884847
IRIDIUM 33 DEB          
1 34521U 97051HN  26063.26157672  .00011843  00000+0  22261-2 0  9991
2 34521  86.3836 354.6297 0005000  21.2292 338.9127 14.64570380896655
IRIDIUM 33 DEB          
1 34525U 97051HS  26063.32603439  .00001957  00000+0  57707-3 0  9998
2 34525  86.3767  12.0080 0004541 152.8143   1.2284 14.43157181892648
IRIDIUM 33 DEB          
1 34529U 97051HW  26063.31127528  .00000984  00000+0  30193-3 0  9990
2 34529  86.3691   0.6390 0003337 315.0674  45.0255 14.40730156893167
IRIDIUM 33 DEB          
1 34538U 97051JF  26063.70455411  .00003938  00000+0  11553-2 0  9998
2 34538  86.2801 329.6571 0036547  54.6981 334.9979 14.43247762889381
IRIDIUM 33 DEB          
1 34540U 97051JH  26063.08032159  .00013583  00000+0  19070-2 0  9991
2 34540  86.3049 270.3553 0014355 244.9978 245.3130 14.77274849902219
IRIDIUM 33 DEB          
1 34648U 97051JZ  26063.50992073  .00010638  00000+0  48804-2 0  9992
2 34648  86.3889 248.8830 0175941  39.5876 321.8002 14.13342933861157
IRIDIUM 33 DEB          
1 34651U 97051KC  26063.53547249  .00009776  00000+0  36418-2 0  9999
2 34651  86.2781 105.7221 0131921 300.5078  58.3142 14.27201856870623
IRIDIUM 33 DEB          
1 34652U 97051KD  26062.69197610  .00004797  00000+0  92811-3 0  9997
2 34652  86.3295 303.9474 0029007  22.9599  32.4891 14.62914267896674
IRIDIUM 33 DEB          
1 34690U 97051KM  26063.80265528  .00002402  00000+0  54751-3 0  9999
2 34690  86.3817   1.3166 0012467  95.4368 294.2402 14.55440391892883
IRIDIUM 33 DEB          
1 34693U 97051KQ  26055.99059176  .01322234  00000+0  68577-2 0  9992
2 34693  86.2833 265.9163 0003939  44.5223 315.6368 15.78525000900614
IRIDIUM 33 DEB          
1 34696U 97051KT  26062.78494826  .00047274  00000+0  73206-2 0  9997
2 34696  86.1826 349.6290 0057888 253.5917 136.5957 14.71841744878620
IRIDIUM 33 DEB          
1 34765U 97051LJ  26063.79868745  .00001917  00000+0  59315-3 0  9991
2 34765  86.3441 357.5478 0014965 315.1597  73.1144 14.40737772887957
IRIDIUM 33 DEB          
1 34833U 97051MH  26063.32700355  .00005256  00000+0  12662-2 0  9991
2 34833  86.3969  15.8073 0019000 175.7434 336.2819 14.53002255888990
IRIDIUM 33 DEB          
1 34870U 97051MQ  26061.88326943  .00009814  00000+0  13451-2 0  9999
2 34870  86.3060 277.3223 0014730 275.7378 144.8425 14.78283800900948
IRIDIUM 33 DEB          
1 34896U 97051MY  26063.39227146  .00006148  00000+0  10830-2 0  9995
2 34896  86.3261 290.0466 0024226 301.9211 181.1911 14.67234408888160
IRIDIUM 33 DEB          
1 34926U 97051NF  26063.45186290  .00041535  00000+0  84548-2 0  9996
2 34926  86.1330 330.2608 0080243  17.9480  35.9019 14.58794511876468
IRIDIUM 33 DEB          
1 34985U 97051NR  26062.84940361  .00003536  00000+0  10607-2 0  9994
2 34985  86.3723  22.2545 0020150 323.4939  65.6321 14.42432725883445
IRIDIUM 33 DEB          
1 35051U 97051NX  26062.19624420  .00002674  00000+0  71394-3 0  9995
2 35051  86.3285 333.7982 0007886 165.3511 194.7923 14.48072669881609
IRIDIUM 33 DEB          
1 35052U 97051NY  26062.75572411  .00000774  00000+0  24623-3 0  9992
2 35052  86.3362 345.7545 0011545 166.6024 193.5483 14.38619205884405
IRIDIUM 33 DEB          
1 35080U 97051PF  26063.57973483  .00164931  00000+0  11929-1 0  9997
2 35080  86.2070  12.8377 0029339 236.8268 123.0151 15.02888093709092
IRIDIUM 33 DEB          
1 35297U 97051PM  26062.66907185  .00003100  00000+0  87194-3 0  9991
2 35297  86.3861  28.1932 0013455 231.0302 128.9703 14.45579710715954
IRIDIUM 33 DEB          
1 35299U 97051PP  26063.29182036  .00005999  00000+0  18059-2 0  9994
2 35299  86.2922 357.6665 0053632 191.2984 322.9952 14.41627307875052
